{"type": "FeatureCollection", "features": [ {"type": "Feature", "properties": {"norad_id": 34910, "name": "COSMOS 2251 DEB", "group": "cosmos-2251-debris", "lat": -69.78076816203392, "lon": 45.385313984359165, "alt_km": 972.8544081401478, "timestamp": "2025-12-15T10:55:21.540207+00:00", "meta": {"OBJECT_NAME": "COSMOS 2251 DEB", "OBJECT_ID": "1993-036ADF", "EPOCH": "2025-12-14T02:07:32.801376", "MEAN_MOTION": 13.37686817, "ECCENTRICITY": 0.0468001, "INCLINATION": 73.8761, "RA_OF_ASC_NODE": 99.2955, "ARG_OF_PERICENTER": 217.9911, "MEAN_ANOMALY": 321.1168, "EPHEMERIS_TYPE": 0, "CLASSIFICATION_TYPE": "U", "NORAD_CAT_ID": 34910, "ELEMENT_SET_NO": 999, "REV_AT_EPOCH": 81542, "BSTAR": 0.0016260876, "MEAN_MOTION_DOT": 1.586e-05, "MEAN_MOTION_DDOT": 0}, "tle": {"line1": "1 34910U 93036ADF 25348.08857409  .00001586  00000+0  16261-2 0  9998", "line2": "2 34910  73.8761  99.2955 0468001 217.9911 321.1168 13.37686817815421"}}, "geometry": {"type": "Point", "coordinates": [45.385313984359165, -69.78076816203392]}}, {"type": "Feature", "properties": {"norad_id": 34911, "name": "COSMOS 2251 DEB", "group": "cosmos-2251-debris", "lat": 14.36338832053189, "lon": 55.36738888524909, "alt_km": 751.5952267440971, "timestamp": "2025-12-15T10:55:21.540218+00:00", "meta": {"OBJECT_NAME": "COSMOS 2251 DEB", "OBJECT_ID": "1993-036ADG", "EPOCH": "2025-12-14T17:58:47.734176", "MEAN_MOTION": 14.59375822, "ECCENTRICITY": 0.00837067, "INCLINATION": 74.0408, "RA_OF_ASC_NODE": 240.9147, "ARG_OF_PERICENTER": 5.8148, "MEAN_ANOMALY": 51.4559, "EPHEMERIS_TYPE": 0, "CLASSIFICATION_TYPE": "U", "NORAD_CAT_ID": 34911, "ELEMENT_SET_NO": 999, "REV_AT_EPOCH": 88616, "BSTAR": 0.0001862909, "MEAN_MOTION_DOT": 8.94e-06, "MEAN_MOTION_DDOT": 0}, "tle": {"line1": "1 34911U 93036ADG 25348.74916359  .00000894  00000+0  18629-3 0  9994", "line2": "2 34911  74.0408 240.9147 0083706   5.8148  51.4559 14.59375822886164"}}, "geometry": {"type": "Point", "coordinates": [55.36738888524909, 14.36338832053189]}}, {"type": "Feature", "properties": {"norad_id": 34913, "name": "COSMOS 2251 DEB", "group": "cosmos-2251-debris", "lat": -67.69176643260343, "lon": -126.74525119948821, "alt_km": 785.9217549156356, "timestamp": "2025-12-15T10:55:21.540228+00:00", "meta": {"OBJECT_NAME": "COSMOS 2251 DEB", "OBJECT_ID": "1993-036ADJ", "EPOCH": "2025-12-13T12:56:38.472288", "MEAN_MOTION": 14.34637945, "ECCENTRICITY": 0.00203757, "INCLINATION": 74.0284, "RA_OF_ASC_NODE": 281.0321, "ARG_OF_PERICENTER": 30.7723, "MEAN_ANOMALY": 84.8293, "EPHEMERIS_TYPE": 0, "CLASSIFICATION_TYPE": "U", "NORAD_CAT_ID": 34913, "ELEMENT_SET_NO": 999, "REV_AT_EPOCH": 65199, "BSTAR": 8.4132523e-05, "MEAN_MOTION_DOT": 2.12e-06, "MEAN_MOTION_DDOT": 0}, "tle": {"line1": "1 34913U 93036ADJ 25347.53933417  .00000212  00000+0  84133-4 0  9994", "line2": "2 34913  74.0284 281.0321 0020375  30.7723  84.8293 14.34637945651993"}}, "geometry": {"type": "Point", "coordinates": [-126.74525119948821, -67.69176643260343]}}, {"type": "Feature", "properties": {"norad_id": 34918, "name": "COSMOS 2251 DEB", "group": "cosmos-2251-debris", "lat": -26.43048901936586, "lon": -59.71085085041352, "alt_km": 681.421048037033, "timestamp": "2025-12-15T10:55:21.540238+00:00", "meta": {"OBJECT_NAME": "COSMOS 2251 DEB", "OBJECT_ID": "1993-036ADP", "EPOCH": "2025-12-10T06:27:09.237024", "MEAN_MOTION": 14.6111897, "ECCENTRICITY": 0.0033898, "INCLINATION": 74.0712, "RA_OF_ASC_NODE": 318.3402, "ARG_OF_PERICENTER": 286.4186, "MEAN_ANOMALY": 135.6409, "EPHEMERIS_TYPE": 0, "CLASSIFICATION_TYPE": "U", "NORAD_CAT_ID": 34918, "ELEMENT_SET_NO": 999, "REV_AT_EPOCH": 65300, "BSTAR": 0.0032517, "MEAN_MOTION_DOT": 0.00016131, "MEAN_MOTION_DDOT": 0}, "tle": {"line1": "1 34918U 93036ADP 25344.26885691  .00016131  00000+0  32517-2 0  9990", "line2": "2 34918  74.0712 318.3402 0033898 286.4186 135.6409 14.61118970653005"}}, "geometry": {"type": "Point", "coordinates": [-59.71085085041352, -26.43048901936586]}}, {"type": "Feature", "properties": {"norad_id": 34924, "name": "COSMOS 2251 DEB", "group": "cosmos-2251-debris", "lat": -41.048912652942526, "lon": 69.8380603664581, "alt_km": 731.8931832831895, "timestamp": "2025-12-15T10:55:21.540249+00:00", "meta": {"OBJECT_NAME": "COSMOS 2251 DEB", "OBJECT_ID": "1993-036ADV", "EPOCH": "2025-12-14T17:44:27.313728", "MEAN_MOTION": 14.60056274, "ECCENTRICITY": 0.00541909, "INCLINATION": 74.0408, "RA_OF_ASC_NODE": 85.6328, "ARG_OF_PERICENTER": 169.805, "MEAN_ANOMALY": 345.4755, "EPHEMERIS_TYPE": 0, "CLASSIFICATION_TYPE": "U", "NORAD_CAT_ID": 34924, "ELEMENT_SET_NO": 999, "REV_AT_EPOCH": 87752, "BSTAR": 0.00085328013, "MEAN_MOTION_DOT": 4.157e-05, "MEAN_MOTION_DDOT": 0}, "tle": {"line1": "1 34924U 93036ADV 25348.73920502  .00004157  00000+0  85328-3 0  9998", "line2": "2 34924  74.0408  85.6328 0054190 169.8050 345.4755 14.60056274877524"}}, "geometry": {"type": "Point", "coordinates": [69.8380603664581, -41.048912652942526]}}, {"type": "Feature", "properties": {"norad_id": 34944, "name": "COSMOS 2251 DEB", "group": "cosmos-2251-debris", "lat": -26.894282088785097, "lon": -141.36283678895373, "alt_km": 881.1148361864543, "timestamp": "2025-12-15T10:55:21.540259+00:00", "meta": {"OBJECT_NAME": "COSMOS 2251 DEB", "OBJECT_ID": "1993-036ADX", "EPOCH": "2025-12-07T09:30:46.029312", "MEAN_MOTION": 14.14167925, "ECCENTRICITY": 0.02195348, "INCLINATION": 73.7495, "RA_OF_ASC_NODE": 241.6775, "ARG_OF_PERICENTER": 90.2413, "MEAN_ANOMALY": 272.3884, "EPHEMERIS_TYPE": 0, "CLASSIFICATION_TYPE": "U", "NORAD_CAT_ID": 34944, "ELEMENT_SET_NO": 999, "REV_AT_EPOCH": 64007, "BSTAR": 0.00099492053, "MEAN_MOTION_DOT": 2.364e-05, "MEAN_MOTION_DDOT": 0}, "tle": {"line1": "1 34944U 93036ADX 25341.39636608  .00002364  00000+0  99492-3 0  9991", "line2": "2 34944  73.7495 241.6775 0219534  90.2413 272.3884 14.14167925640077"}}, "geometry": {"type": "Point", "coordinates": [-141.36283678895373, -26.894282088785097]}}, {"type": "Feature", "properties": {"norad_id": 34946, "name": "COSMOS 2251 DEB", "group": "cosmos-2251-debris", "lat": -1.017958045726068, "lon": 157.20648824512273, "alt_km": 676.0636309860329, "timestamp": "2025-12-15T10:55:21.540269+00:00", "meta": {"OBJECT_NAME": "COSMOS 2251 DEB", "OBJECT_ID": "1993-036ADZ", "EPOCH": "2025-12-11T09:12:32.820480", "MEAN_MOTION": 14.61985522, "ECCENTRICITY": 0.0048688, "INCLINATION": 74.0237, "RA_OF_ASC_NODE": 344.7115, "ARG_OF_PERICENTER": 122.3418, "MEAN_ANOMALY": 238.2476, "EPHEMERIS_TYPE": 0, "CLASSIFICATION_TYPE": "U", "NORAD_CAT_ID": 34946, "ELEMENT_SET_NO": 999, "REV_AT_EPOCH": 88189, "BSTAR": 0.00095647955, "MEAN_MOTION_DOT": 4.849e-05, "MEAN_MOTION_DDOT": 0}, "tle": {"line1": "1 34946U 93036ADZ 25345.38371320  .00004849  00000+0  95648-3 0  9992", "line2": "2 34946  74.0237 344.7115 0048688 122.3418 238.2476 14.61985522881890"}}, "geometry": {"type": "Point", "coordinates": [157.20648824512273, -1.017958045726068]}}, {"type": "Feature", "properties": {"norad_id": 34949, "name": "COSMOS 2251 DEB", "group": "cosmos-2251-debris", "lat": -14.18386819173517, "lon": -71.49319438797491, "alt_km": 619.3880358648139, "timestamp": "2025-12-15T10:55:21.540279+00:00", "meta": {"OBJECT_NAME": "COSMOS 2251 DEB", "OBJECT_ID": "1993-036AEC", "EPOCH": "2025-12-14T01:27:27.021888", "MEAN_MOTION": 14.74012104, "ECCENTRICITY": 0.00803584, "INCLINATION": 74.0179, "RA_OF_ASC_NODE": 107.0758, "ARG_OF_PERICENTER": 252.1324, "MEAN_ANOMALY": 107.1073, "EPHEMERIS_TYPE": 0, "CLASSIFICATION_TYPE": "U", "NORAD_CAT_ID": 34949, "ELEMENT_SET_NO": 999, "REV_AT_EPOCH": 88381, "BSTAR": 0.00063432266, "MEAN_MOTION_DOT": 4.359e-05, "MEAN_MOTION_DDOT": 0}, "tle": {"line1": "1 34949U 93036AEC 25348.06072942  .00004359  00000+0  63432-3 0  9993", "line2": "2 34949  74.0179 107.0758 0080358 252.1324 107.1073 14.74012104883811"}}, "geometry": {"type": "Point", "coordinates": [-71.49319438797491, -14.18386819173517]}}, {"type": "Feature", "properties": {"norad_id": 34953, "name": "COSMOS 2251 DEB", "group": "cosmos-2251-debris", "lat": 54.51951663800494, "lon": 178.66880835482291, "alt_km": 671.6594463339825, "timestamp": "2025-12-15T10:55:21.540290+00:00", "meta": {"OBJECT_NAME": "COSMOS 2251 DEB", "OBJECT_ID": "1993-036AEG", "EPOCH": "2025-12-14T20:27:52.163712", "MEAN_MOTION": 14.68980556, "ECCENTRICITY": 0.00581585, "INCLINATION": 74.0936, "RA_OF_ASC_NODE": 23.4135, "ARG_OF_PERICENTER": 14.8001, "MEAN_ANOMALY": 162.1563, "EPHEMERIS_TYPE": 0, "CLASSIFICATION_TYPE": "U", "NORAD_CAT_ID": 34953, "ELEMENT_SET_NO": 999, "REV_AT_EPOCH": 88159, "BSTAR": 0.00054633691, "MEAN_MOTION_DOT": 3.254e-05, "MEAN_MOTION_DDOT": 0}, "tle": {"line1": "1 34953U 93036AEG 25348.85268708  .00003254  00000+0  54634-3 0  9999", "line2": "2 34953  74.0936  23.4135 0058158  14.8001 162.1563 14.68980556881591"}}, "geometry": {"type": "Point", "coordinates": [178.66880835482291, 54.51951663800494]}}, {"type": "Feature", "properties": {"norad_id": 34955, "name": "COSMOS 2251 DEB", "group": "cosmos-2251-debris", "lat": -22.137688062903887, "lon": 67.67182020065901, "alt_km": 585.1902969186012, "timestamp": "2025-12-15T10:55:21.540300+00:00", "meta": {"OBJECT_NAME": "COSMOS 2251 DEB", "OBJECT_ID": "1993-036AEJ", "EPOCH": "2025-12-11T10:00:38.398176", "MEAN_MOTION": 15.00495775, "ECCENTRICITY": 0.00779991, "INCLINATION": 74.0375, "RA_OF_ASC_NODE": 249.1952, "ARG_OF_PERICENTER": 319.1032, "MEAN_ANOMALY": 40.4318, "EPHEMERIS_TYPE": 0, "CLASSIFICATION_TYPE": "U", "NORAD_CAT_ID": 34955, "ELEMENT_SET_NO": 999, "REV_AT_EPOCH": 90014, "BSTAR": 0.0014966224, "MEAN_MOTION_DOT": 0.00020131, "MEAN_MOTION_DDOT": 0}, "tle": {"line1": "1 34955U 93036AEJ 25345.41711109  .00020131  00000+0  14966-2 0  9994", "line2": "2 34955  74.0375 249.1952 0077999 319.1032  40.4318 15.00495775900143"}}, "geometry": {"type": "Point", "coordinates": [67.67182020065901, -22.137688062903887]}}]}